[{"OBJECT_NAME":"OBJECT AJ","OBJECT_ID":"2023-085AJ","EPOCH":"2026-03-09T21:40:57.336960","MEAN_MOTION":15.22482723,"ECCENTRICITY":0.0009664,"INCLINATION":97.4789,"RA_OF_ASC_NODE":174.9935,"ARG_OF_PERICENTER":71.8929,"MEAN_ANOMALY":288.3359,"EPHEMERIS_TYPE":0,"CLASSIFICATION_TYPE":"U","NORAD_CAT_ID":57036,"ELEMENT_SET_NO":999,"REV_AT_EPOCH":15122,"BSTAR":0.00051608664,"MEAN_MOTION_DOT":0.00011905,"MEAN_MOTION_DDOT":0},{"OBJECT_NAME":"CZ-6A DEB","OBJECT_ID":"2022-151AAA","EPOCH":"2026-03-09T04:57:45.021312","MEAN_MOTION":15.12096834,"ECCENTRICITY":0.00549442,"INCLINATION":98.6194,"RA_OF_ASC_NODE":161.6622,"ARG_OF_PERICENTER":147.3471,"MEAN_ANOMALY":213.1173,"EPHEMERIS_TYPE":0,"CLASSIFICATION_TYPE":"U","NORAD_CAT_ID":55878,"ELEMENT_SET_NO":999,"REV_AT_EPOCH":16515,"BSTAR":0.0054624845,"MEAN_MOTION_DOT":0.00098665,"MEAN_MOTION_DDOT":0}]
